     2.11           N: GPS NAV DATA                         RINEX VERSION / TYPE
teqc  2018Dec12     gpsops              20220204 01:04:02UTCPGM / RUN BY / DATE
Linux 2.6.32-573.12.1.x86_64|x86_64|gcc -static|Linux 64|=+ COMMENT
CHPI                                    MARKER NAME         COMMENT
41609M003                               MARKER NUMBER       COMMENT
4164613.9484 -4162456.9866 -2445028.7316                    COMMENT
                                                            COMMENT
This data is provided as a public service by NASA/JPL.      COMMENT
No warranty is expressed or implied regarding suitability   COMMENT
for use.  For further information, contact:                 COMMENT
Dave Stowers, NASA/JPL m/s 238-600                          COMMENT
4800 Oak Grove Drive, Pasadena CA 91109 USA                 COMMENT
                                                            END OF HEADER
 6 22  2  3  6  0  0.0 1.898361369967D-04 1.159605744760D-11 0.000000000000D+00
    8.800000000000D+01 1.029375000000D+02 4.233747781160D-09-2.230987505493D+00
    5.472451448441D-06 2.665290143341D-03 4.764646291733D-06 5.153661724091D+03
    3.672000000000D+05-5.774199962616D-08-1.670100294427D+00 3.725290298462D-08
    9.859108999235D-01 3.019062500000D+02-9.734610910990D-01-8.046406593704D-09
    3.900162457421D-10 1.000000000000D+00 2.195000000000D+03 0.000000000000D+00
    2.000000000000D+00 0.000000000000D+00 3.725290298462D-09 8.800000000000D+01
    3.600180000000D+05 4.000000000000D+00
 5 22  2  3  5 59 44.0-7.011136040092D-05-1.364242052659D-12 0.000000000000D+00
    8.000000000000D+00-8.421875000000D+01 4.879131806853D-09 7.226058836641D-02
   -4.218891263008D-06 5.867831292562D-03 2.965331077576D-06 5.153661785126D+03
    3.671840000000D+05-1.676380634308D-08-6.664190301590D-01-9.313225746155D-09
    9.594877964609D-01 3.188750000000D+02 1.012537354851D+00-8.624644965367D-09
   -3.668009930194D-10 1.000000000000D+00 2.195000000000D+03 0.000000000000D+00
    2.000000000000D+00 0.000000000000D+00-1.117587089539D-08 8.000000000000D+00
    3.604560000000D+05 4.000000000000D+00
 1 22  2  3  6  0  0.0 4.410305991769D-04-9.549694368616D-12 0.000000000000D+00
    9.200000000000D+01 1.081562500000D+02 4.209461055235D-09-2.574828869878D+00
    5.438923835754D-06 1.133319700602D-02 4.820525646210D-06 5.153668256760D+03
    3.672000000000D+05 1.769512891769D-07-1.661828265109D+00-1.844018697739D-07
    9.865297918057D-01 2.992812500000D+02 8.825136377668D-01-8.009619347081D-09
    5.028780897481D-10 1.000000000000D+00 2.195000000000D+03 0.000000000000D+00
    2.000000000000D+00 0.000000000000D+00 5.122274160385D-09 9.200000000000D+01
    3.604980000000D+05 4.000000000000D+00
14 22  2  3  6 29 36.0-7.919687777758D-05-4.888534022029D-12 0.000000000000D+00
    2.150000000000D+02-3.559375000000D+01 4.996993859137D-09 2.700991412185D+00
   -1.765787601471D-06 1.381342764944D-03 5.977228283882D-06 5.153639482498D+03
    3.689760000000D+05-2.048909664154D-08 2.555538529260D+00 1.117587089539D-08
    9.538552970675D-01 2.580625000000D+02 3.025530940342D+00-8.316417840756D-09
   -3.896590880079D-10 1.000000000000D+00 2.195000000000D+03 0.000000000000D+00
    2.000000000000D+00 0.000000000000D+00-7.450580596924D-09 9.830000000000D+02
    3.618180000000D+05 4.000000000000D+00
12 22  2  3  5 59 44.0-1.653414219618D-04-5.684341886081D-12 0.000000000000D+00
    2.500000000000D+01-4.034375000000D+01 4.424112853487D-09 2.384018655169D+00
   -2.162531018257D-06 8.650025236420D-03 6.875023245811D-06 5.153605157852D+03
    3.671840000000D+05 3.725290298462D-08 2.586646554726D+00-1.005828380585D-07
    9.704718520709D-01 2.504687500000D+02 1.241181175104D+00-7.924258648609D-09
   -4.682337895311D-10 1.000000000000D+00 2.195000000000D+03 0.000000000000D+00
    2.000000000000D+00 0.000000000000D+00-1.257285475731D-08 2.500000000000D+01
    3.621480000000D+05 4.000000000000D+00
24 22  2  3  6  0  0.0 2.760770730674D-04-1.250555214938D-12 0.000000000000D+00
    2.000000000000D+01 5.446875000000D+01 5.203788187237D-09-2.274982285618D+00
    2.760440111160D-06 1.231510471553D-02 7.268041372299D-06 5.153693435669D+03
    3.672000000000D+05 2.421438694000D-08 1.391159026032D+00-9.499490261078D-08
    9.341039982781D-01 2.251250000000D+02 8.057317767283D-01-8.236057350562D-09
    6.325263472613D-10 1.000000000000D+00 2.195000000000D+03 0.000000000000D+00
    2.000000000000D+00 0.000000000000D+00 2.328306436539D-09 2.000000000000D+01
    3.625080000000D+05 4.000000000000D+00
 2 22  2  3  6  0  0.0-6.501111201942D-04-7.958078640513D-13 0.000000000000D+00
    6.300000000000D+01 1.137812500000D+02 4.488401245642D-09-2.422211126222D+00
    6.092712283134D-06 2.067400352098D-02 4.474073648453D-06 5.153690532684D+03
    3.672000000000D+05 1.657754182816D-07-1.750873572375D+00 2.309679985046D-07
    9.648910273328D-01 2.920625000000D+02-1.447779495770D+00-7.947831059065D-09
    4.710910514046D-10 1.000000000000D+00 2.195000000000D+03 0.000000000000D+00
    2.000000000000D+00 0.000000000000D+00-1.769512891769D-08 6.300000000000D+01
    3.639360000000D+05 4.000000000000D+00
11 22  2  3  6  0  0.0-1.020077615976D-04 1.375610736432D-11 0.000000000000D+00
    1.360000000000D+02 8.950000000000D+01 4.781270587683D-09-4.125395672889D-01
    4.751607775688D-06 2.860204549506D-04 3.769993782043D-06 5.153768610001D+03
    3.672000000000D+05-5.960464477539D-08-1.617749516412D+00 5.215406417847D-08
    9.616294163651D-01 3.086875000000D+02 2.835880178912D+00-8.426422422888D-09
    3.575148919303D-10 1.000000000000D+00 2.195000000000D+03 0.000000000000D+00
    2.000000000000D+00 6.300000000000D+01-8.847564458847D-09 9.040000000000D+02
    3.645720000000D+05 4.000000000000D+00
19 22  2  3  8  0  0.0 1.139836385846D-04 5.002220859751D-12 0.000000000000D+00
    6.300000000000D+01 5.621875000000D+01 3.726226640868D-09 3.066754311404D+00
    2.846121788025D-06 8.945108274929D-03 1.299753785133D-05 5.153690586090D+03
    3.744000000000D+05 7.078051567078D-08-2.614852686150D+00 9.872019290924D-08
    9.789972778177D-01 1.314687500000D+02 2.003558268587D+00-7.497455156244D-09
   -7.464596644698D-11 1.000000000000D+00 2.195000000000D+03 0.000000000000D+00
    2.000000000000D+00 0.000000000000D+00-1.583248376846D-08 6.300000000000D+01
    3.672180000000D+05 4.000000000000D+00
13 22  2  3  8  0  0.0 2.555903047323D-04 6.139089236967D-12 0.000000000000D+00
    8.900000000000D+01-5.493750000000D+01 4.154815921903D-09 1.646854953319D-01
   -2.712011337280D-06 5.794235155918D-03 1.207925379276D-05 5.153681510925D+03
    3.744000000000D+05-2.607703208923D-08 5.543860279919D-01 7.823109626770D-08
    9.688624739481D-01 1.495000000000D+02 9.645404170714D-01-7.850684155364D-09
    1.132190017402D-10 1.000000000000D+00 2.195000000000D+03 0.000000000000D+00
    2.000000000000D+00 0.000000000000D+00-1.117587089539D-08 8.900000000000D+01
    3.672180000000D+05 4.000000000000D+00
17 22  2  3  8  0  0.0 5.700802430511D-04 5.115907697473D-12 0.000000000000D+00
    9.800000000000D+01 4.000000000000D+01 3.792657979428D-09 6.597813231804D-01
    2.104789018631D-06 1.365352305584D-02 1.294724643230D-05 5.153758415222D+03
    3.744000000000D+05-1.788139343262D-07-2.659727350057D+00-1.173466444016D-07
    9.802705388084D-01 1.389687500000D+02-1.501442422064D+00-7.890685821594D-09
   -1.710785546799D-10 1.000000000000D+00 2.195000000000D+03 0.000000000000D+00
    2.800000000000D+00 0.000000000000D+00-1.117587089539D-08 9.800000000000D+01
    3.672180000000D+05 4.000000000000D+00
15 22  2  3  8  0  0.0-8.669961243868D-05 2.842170943040D-12 0.000000000000D+00
    6.800000000000D+01-7.765625000000D+01 5.075925718395D-09-2.495396315387D-01
   -3.948807716370D-06 1.392276980914D-02 1.115910708904D-05 5.153741861343D+03
    3.744000000000D+05-7.823109626770D-08 2.961091313910D-01 1.657754182816D-07
    9.303519337838D-01 1.480312500000D+02 1.073900896123D+00-8.524283642058D-09
   -7.428880871279D-11 1.000000000000D+00 2.195000000000D+03 0.000000000000D+00
    2.000000000000D+00 0.000000000000D+00-1.071020960808D-08 6.800000000000D+01
    3.672180000000D+05 4.000000000000D+00
 6 22  2  3  8  0  0.0 1.899194903672D-04 1.159605744760D-11 0.000000000000D+00
    9.100000000000D+01 1.017187500000D+02 4.257320191617D-09-1.181113574441D+00
    5.181878805161D-06 2.665832871571D-03 5.336478352547D-06 5.153660017014D+03
    3.744000000000D+05-5.774199962616D-08-1.670158953053D+00-8.940696716309D-08
    9.859134234572D-01 2.930312500000D+02-9.731474765728D-01-8.153911071697D-09
    4.410898017322D-10 1.000000000000D+00 2.195000000000D+03 0.000000000000D+00
    2.800000000000D+00 0.000000000000D+00 3.725290298462D-09 9.100000000000D+01
    3.672180000000D+05 4.000000000000D+00
28 22  2  3  8  0  0.0 4.085572436452D-04-8.185452315956D-12 0.000000000000D+00
    3.200000000000D+01-3.756250000000D+01 4.657336853917D-09 1.141179579876D+00
   -2.210959792137D-06 1.687899534591D-02 6.655231118202D-06 5.153691013336D+03
    3.744000000000D+05 1.862645149231D-09 2.608671813378D+00-4.116445779800D-07
    9.695818448957D-01 2.568750000000D+02-1.289673854858D+00-8.264272811563D-09
   -4.268034923643D-10 1.000000000000D+00 2.195000000000D+03 0.000000000000D+00
    2.000000000000D+00 6.300000000000D+01-1.117587089539D-08 3.200000000000D+01
    3.672180000000D+05 4.000000000000D+00
24 22  2  3  8  0  0.0 2.760682255030D-04-1.250555214938D-12 0.000000000000D+00
    2.100000000000D+01 4.650000000000D+01 5.253790270024D-09-1.224717628165D+00
    2.486631274223D-06 1.231494429521D-02 7.329508662224D-06 5.153695568085D+03
    3.744000000000D+05 2.868473529816D-07 1.391100411293D+00 7.078051567078D-08
    9.341073571380D-01 2.231875000000D+02 8.056396640915D-01-8.433565577572D-09
    4.468043254793D-10 1.000000000000D+00 2.195000000000D+03 0.000000000000D+00
    2.000000000000D+00 0.000000000000D+00 2.328306436539D-09 2.100000000000D+01
    3.672180000000D+05 4.000000000000D+00
